{
  "type": "FeatureCollection",
  "features": [
    {
      "type": "Feature",
      "properties": {
        "norad_id": 55973,
        "name": "TIANMU-1 03",
        "group": "weather",
        "lat": -27.35457215246493,
        "lon": 155.31931746361195,
        "alt_km": 448.64638326589466,
        "timestamp": "2025-12-14T16:47:40.326398+00:00",
        "meta_object_name": "TIANMU-1 03",
        "meta_object_id": "2023-039A",
        "meta_epoch": "2025-12-13T23:46:15.697344",
        "meta_mean_motion": 15.40970934,
        "meta_eccentricity": 0.00043563,
        "meta_inclination": 97.5105,
        "meta_ra_of_asc_node": 150.6766,
        "meta_arg_of_pericenter": 57.4316,
        "meta_mean_anomaly": 302.7351,
        "meta_ephemeris_type": 0,
        "meta_classification_type": "U",
        "meta_norad_cat_id": 55973,
        "meta_element_set_no": 999,
        "meta_rev_at_epoch": 15225,
        "meta_bstar": 0.00041863645,
        "meta_mean_motion_dot": 0.0001718,
        "meta_mean_motion_ddot": 0,
        "tle_line1": "1 55973U 23039A   25347.99045946  .00017180  00000+0  41864-3 0  9995",
        "tle_line2": "2 55973  97.5105 150.6766 0004356  57.4316 302.7351 15.40970934152251"
      },
      "geometry": {
        "type": "Point",
        "coordinates": [
          155.31931746361195,
          -27.35457215246493
        ]
      }
    },
    {
      "type": "Feature",
      "properties": {
        "norad_id": 55974,
        "name": "TIANMU-1 04",
        "group": "weather",
        "lat": 82.41635899200196,
        "lon": 68.68370460350641,
        "alt_km": 432.045391161364,
        "timestamp": "2025-12-14T16:47:40.326409+00:00",
        "meta_object_name": "TIANMU-1 04",
        "meta_object_id": "2023-039B",
        "meta_epoch": "2025-12-13T23:16:16.385376",
        "meta_mean_motion": 15.41309941,
        "meta_eccentricity": 0.00049924,
        "meta_inclination": 97.5038,
        "meta_ra_of_asc_node": 149.8456,
        "meta_arg_of_pericenter": 52.7621,
        "meta_mean_anomaly": 307.408,
        "meta_ephemeris_type": 0,
        "meta_classification_type": "U",
        "meta_norad_cat_id": 55974,
        "meta_element_set_no": 999,
        "meta_rev_at_epoch": 15225,
        "meta_bstar": 0.00041804713,
        "meta_mean_motion_dot": 0.00017352,
        "meta_mean_motion_ddot": 0,
        "tle_line1": "1 55974U 23039B   25347.96963409  .00017352  00000+0  41805-3 0  9992",
        "tle_line2": "2 55974  97.5038 149.8456 0004992  52.7621 307.4080 15.41309941152252"
      },
      "geometry": {
        "type": "Point",
        "coordinates": [
          68.68370460350641,
          82.41635899200196
        ]
      }
    },
    {
      "type": "Feature",
      "properties": {
        "norad_id": 55975,
        "name": "TIANMU-1 05",
        "group": "weather",
        "lat": 60.890576032382825,
        "lon": -15.209374577959066,
        "alt_km": 435.37206246609185,
        "timestamp": "2025-12-14T16:47:40.326420+00:00",
        "meta_object_name": "TIANMU-1 05",
        "meta_object_id": "2023-039C",
        "meta_epoch": "2025-12-13T23:08:25.461312",
        "meta_mean_motion": 15.40927245,
        "meta_eccentricity": 0.00043294,
        "meta_inclination": 97.5084,
        "meta_ra_of_asc_node": 150.3326,
        "meta_arg_of_pericenter": 74.5827,
        "meta_mean_anomaly": 285.5897,
        "meta_ephemeris_type": 0,
        "meta_classification_type": "U",
        "meta_norad_cat_id": 55975,
        "meta_element_set_no": 999,
        "meta_rev_at_epoch": 15223,
        "meta_bstar": 0.00041186102,
        "meta_mean_motion_dot": 0.00016876,
        "meta_mean_motion_ddot": 0,
        "tle_line1": "1 55975U 23039C   25347.96418358  .00016876  00000+0  41186-3 0  9993",
        "tle_line2": "2 55975  97.5084 150.3326 0004329  74.5827 285.5897 15.40927245152233"
      },
      "geometry": {
        "type": "Point",
        "coordinates": [
          -15.209374577959066,
          60.890576032382825
        ]
      }
    },
    {
      "type": "Feature",
      "properties": {
        "norad_id": 55976,
        "name": "TIANMU-1 06",
        "group": "weather",
        "lat": 75.1825229583583,
        "lon": 121.6428804394905,
        "alt_km": 431.792898223056,
        "timestamp": "2025-12-14T16:47:40.326430+00:00",
        "meta_object_name": "TIANMU-1 06",
        "meta_object_id": "2023-039D",
        "meta_epoch": "2025-12-13T23:19:20.703360",
        "meta_mean_motion": 15.41361228,
        "meta_eccentricity": 0.00046105,
        "meta_inclination": 97.5096,
        "meta_ra_of_asc_node": 150.8063,
        "meta_arg_of_pericenter": 70.0507,
        "meta_mean_anomaly": 290.1235,
        "meta_ephemeris_type": 0,
        "meta_classification_type": "U",
        "meta_norad_cat_id": 55976,
        "meta_element_set_no": 999,
        "meta_rev_at_epoch": 15225,
        "meta_bstar": 0.00038018206,
        "meta_mean_motion_dot": 0.00015795,
        "meta_mean_motion_ddot": 0,
        "tle_line1": "1 55976U 23039D   25347.97176740  .00015795  00000+0  38018-3 0  9990",
        "tle_line2": "2 55976  97.5096 150.8063 0004610  70.0507 290.1235 15.41361228152253"
      },
      "geometry": {
        "type": "Point",
        "coordinates": [
          121.6428804394905,
          75.1825229583583
        ]
      }
    },
    {
      "type": "Feature",
      "properties": {
        "norad_id": 56232,
        "name": "FENGYUN 3G",
        "group": "weather",
        "lat": -48.76161212941051,
        "lon": 110.69757887840882,
        "alt_km": 411.3153544572815,
        "timestamp": "2025-12-14T16:47:40.326443+00:00",
        "meta_object_name": "FENGYUN 3G",
        "meta_object_id": "2023-055A",
        "meta_epoch": "2025-12-14T00:15:00.776160",
        "meta_mean_motion": 15.53744306,
        "meta_eccentricity": 0.00093579,
        "meta_inclination": 49.9931,
        "meta_ra_of_asc_node": 220.8976,
        "meta_arg_of_pericenter": 154.278,
        "meta_mean_anomaly": 205.8654,
        "meta_ephemeris_type": 0,
        "meta_classification_type": "U",
        "meta_norad_cat_id": 56232,
        "meta_element_set_no": 999,
        "meta_rev_at_epoch": 15122,
        "meta_bstar": 0.00051571157,
        "meta_mean_motion_dot": 0.00033436,
        "meta_mean_motion_ddot": 0,
        "tle_line1": "1 56232U 23055A   25348.01042565  .00033436  00000+0  51571-3 0  9998",
        "tle_line2": "2 56232  49.9931 220.8976 0009357 154.2780 205.8654 15.53744306151229"
      },
      "geometry": {
        "type": "Point",
        "coordinates": [
          110.69757887840882,
          -48.76161212941051
        ]
      }
    },
    {
      "type": "Feature",
      "properties": {
        "norad_id": 57166,
        "name": "METEOR-M2 3",
        "group": "weather",
        "lat": -29.3824484450071,
        "lon": -142.70519992818947,
        "alt_km": 820.0968482191101,
        "timestamp": "2025-12-14T16:47:40.326454+00:00",
        "meta_object_name": "METEOR-M2 3",
        "meta_object_id": "2023-091A",
        "meta_epoch": "2025-12-14T00:38:10.050144",
        "meta_mean_motion": 14.2402622,
        "meta_eccentricity": 0.00038335,
        "meta_inclination": 98.6377,
        "meta_ra_of_asc_node": 41.5433,
        "meta_arg_of_pericenter": 5.3009,
        "meta_mean_anomaly": 354.821,
        "meta_ephemeris_type": 0,
        "meta_classification_type": "U",
        "meta_norad_cat_id": 57166,
        "meta_element_set_no": 999,
        "meta_rev_at_epoch": 12816,
        "meta_bstar": 2.7399273e-05,
        "meta_mean_motion_dot": 1.9e-07,
        "meta_mean_motion_ddot": 0,
        "tle_line1": "1 57166U 23091A   25348.02650521  .00000019  00000+0  27399-4 0  9996",
        "tle_line2": "2 57166  98.6377  41.5433 0003833   5.3009 354.8210 14.24026220128165"
      },
      "geometry": {
        "type": "Point",
        "coordinates": [
          -142.70519992818947,
          -29.3824484450071
        ]
      }
    },
    {
      "type": "Feature",
      "properties": {
        "norad_id": 57399,
        "name": "TIANMU-1 07",
        "group": "weather",
        "lat": 49.08771130842171,
        "lon": 30.013677866129175,
        "alt_km": 473.67140544049107,
        "timestamp": "2025-12-14T16:47:40.326466+00:00",
        "meta_object_name": "TIANMU-1 07",
        "meta_object_id": "2023-101A",
        "meta_epoch": "2025-12-14T00:51:44.486784",
        "meta_mean_motion": 15.28097463,
        "meta_eccentricity": 0.00055445,
        "meta_inclination": 97.2882,
        "meta_ra_of_asc_node": 37.8571,
        "meta_arg_of_pericenter": 78.2491,
        "meta_mean_anomaly": 281.9371,
        "meta_ephemeris_type": 0,
        "meta_classification_type": "U",
        "meta_norad_cat_id": 57399,
        "meta_element_set_no": 999,
        "meta_rev_at_epoch": 13335,
        "meta_bstar": 0.00032176607,
        "meta_mean_motion_dot": 8.748e-05,
        "meta_mean_motion_ddot": 0,
        "tle_line1": "1 57399U 23101A   25348.03593156  .00008748  00000+0  32177-3 0  9993",
        "tle_line2": "2 57399  97.2882  37.8571 0005544  78.2491 281.9371 15.28097463133352"
      },
      "geometry": {
        "type": "Point",
        "coordinates": [
          30.013677866129175,
          49.08771130842171
        ]
      }
    }
  ]
}